ORBCOMM FM33            
1 25983U 99065D   24162.17750099  .00002059  00000+0  72326-3 0  9997
2 25983  45.0294 324.7093 0007588 345.3589  14.7039 14.37826292282556
ORBCOMM FM35            
1 25985U 99065F   24161.96548793  .00001868  00000+0  69532-3 0  9993
2 25985  45.0411  54.4834 0003787 338.8762  21.1929 14.35268399281270
ORBCOMM FM38            
1 33060U 08031A   24161.79255669  .00003955  00000+0  57363-3 0  9995
2 33060  48.4412 285.2950 0006300 247.2364 112.7885 14.77768376859601
ORBCOMM FM41            
1 33061U 08031B   24162.07877264  .00003842  00000+0  56166-3 0  9994
2 33061  48.4449 290.6315 0005395 236.2887 294.3015 14.77497473859584
ORBCOMM FM29            
1 33062U 08031C   24162.13600564  .00004089  00000+0  59655-3 0  9999
2 33062  48.4403 298.3970 0007232 233.0916 296.9761 14.77440160859450
ORBCOMM FM39            
1 33063U 08031D   24162.15818182  .00003391  00000+0  51176-3 0  9994
2 33063  48.4415 319.0431 0007893 208.5771 151.4710 14.76406439859185
